[
    {
        "Altitude(m)": 564598.6090580492,
        "Argument of Periapsis(deg)": 0.019868973332140504,
        "Eccentricity": 0.0,
        "Inclination(deg)": 53.0,
        "Latitude(deg)": -35.31644842690128,
        "Longitude(deg)": -159.45019671885888,
        "Mean Anomaly(deg)": -46.08882139726724,
        "RAAN(deg)": 334.97043010558406,
        "Satellite Name": "Starlink Shell 1 1491",
        "Satellite Number": 1491,
        "Semi-Major Axis(m)": 6931778.249405717,
        "Time(s)": 570
    },
    {
        "Altitude(m)": 564425.933905691,
        "Argument of Periapsis(deg)": 0.02021755181165174,
        "Eccentricity": 0.0,
        "Inclination(deg)": 53.0,
        "Latitude(deg)": -34.89043804514839,
        "Longitude(deg)": -158.93129062128176,
        "Mean Anomaly(deg)": -45.46199019371054,
        "RAAN(deg)": 334.9699113355066,
        "Satellite Name": "Starlink Shell 1 1491",
        "Satellite Number": 1491,
        "Semi-Major Axis(m)": 6931778.249405717,
        "Time(s)": 580
    },
    {
        "Altitude(m)": 564252.6878599972,
        "Argument of Periapsis(deg)": 0.020566130291162974,
        "Eccentricity": 0.0,
        "Inclination(deg)": 53.0,
        "Latitude(deg)": -34.46183109741556,
        "Longitude(deg)": -158.41813476359115,
        "Mean Anomaly(deg)": -44.83515899015379,
        "RAAN(deg)": 334.9693925654292,
        "Satellite Name": "Starlink Shell 1 1491",
        "Satellite Number": 1491,
        "Semi-Major Axis(m)": 6931778.249405717,
        "Time(s)": 590
    },
    {
        "Altitude(m)": 564078.9371795009,
        "Argument of Periapsis(deg)": 0.020914708770674213,
        "Eccentricity": 0.0,
        "Inclination(deg)": 53.0,
        "Latitude(deg)": -34.0306930903447,
        "Longitude(deg)": -157.910613359468,
        "Mean Anomaly(deg)": -44.208327786597046,
        "RAAN(deg)": 334.96887379535167,
        "Satellite Name": "Starlink Shell 1 1491",
        "Satellite Number": 1491,
        "Semi-Major Axis(m)": 6931778.249405717,
        "Time(s)": 600
    },
    {
        "Altitude(m)": 563904.74820258,
        "Argument of Periapsis(deg)": 0.021263287250185448,
        "Eccentricity": 0.0,
        "Inclination(deg)": 53.0,
        "Latitude(deg)": -33.597088056804154,
        "Longitude(deg)": -157.40861147716117,
        "Mean Anomaly(deg)": -43.581496583040355,
        "RAAN(deg)": 334.96835502527415,
        "Satellite Name": "Starlink Shell 1 1491",
        "Satellite Number": 1491,
        "Semi-Major Axis(m)": 6931778.249405717,
        "Time(s)": 610
    },
    {
        "Altitude(m)": 563730.1873177952,
        "Argument of Periapsis(deg)": 0.021611865729696686,
        "Eccentricity": 0.0,
        "Inclination(deg)": 53.0,
        "Latitude(deg)": -33.16107858783806,
        "Longitude(deg)": -156.9120146058067,
        "Mean Anomaly(deg)": -42.95466537948366,
        "RAAN(deg)": 334.96783625519674,
        "Satellite Name": "Starlink Shell 1 1491",
        "Satellite Number": 1491,
        "Semi-Major Axis(m)": 6931778.249405717,
        "Time(s)": 620
    },
    {
        "Altitude(m)": 563555.3209342249,
        "Argument of Periapsis(deg)": 0.02196044420920792,
        "Eccentricity": 0.0,
        "Inclination(deg)": 53.0,
        "Latitude(deg)": -32.72272586486344,
        "Longitude(deg)": -156.42070989505822,
        "Mean Anomaly(deg)": -42.32783417592697,
        "RAAN(deg)": 334.9673174851193,
        "Satellite Name": "Starlink Shell 1 1491",
        "Satellite Number": 1491,
        "Semi-Major Axis(m)": 6931778.249405717,
        "Time(s)": 630
    },
    {
        "Altitude(m)": 563380.2154517596,
        "Argument of Periapsis(deg)": 0.02230902268871916,
        "Eccentricity": 0.0,
        "Inclination(deg)": 53.0,
        "Latitude(deg)": -32.28208969202735,
        "Longitude(deg)": -155.93458486607753,
        "Mean Anomaly(deg)": -41.70100297237027,
        "RAAN(deg)": 334.96679871504176,
        "Satellite Name": "Starlink Shell 1 1491",
        "Satellite Number": 1491,
        "Semi-Major Axis(m)": 6931778.249405717,
        "Time(s)": 640
    },
    {
        "Altitude(m)": 563204.9372314023,
        "Argument of Periapsis(deg)": 0.022657601168230398,
        "Eccentricity": 0.0,
        "Inclination(deg)": 53.0,
        "Latitude(deg)": -31.83922852862881,
        "Longitude(deg)": -155.45352863725645,
        "Mean Anomaly(deg)": -41.07417176881357,
        "RAAN(deg)": 334.9662799449643,
        "Satellite Name": "Starlink Shell 1 1491",
        "Satellite Number": 1491,
        "Semi-Major Axis(m)": 6931778.249405717,
        "Time(s)": 650
    },
    {
        "Altitude(m)": 563029.5525655398,
        "Argument of Periapsis(deg)": 0.023006179647741636,
        "Eccentricity": 0.0,
        "Inclination(deg)": 53.0,
        "Latitude(deg)": -31.394199521535743,
        "Longitude(deg)": -154.97743146267888,
        "Mean Anomaly(deg)": -40.44734056525687,
        "RAAN(deg)": 334.96576117488684,
        "Satellite Name": "Starlink Shell 1 1491",
        "Satellite Number": 1491,
        "Semi-Major Axis(m)": 6931778.249405717,
        "Time(s)": 660
    },
    {
        "Altitude(m)": 562854.127648301,
        "Argument of Periapsis(deg)": 0.023354758127252868,
        "Eccentricity": 0.0,
        "Inclination(deg)": 53.0,
        "Latitude(deg)": -30.947058537521492,
        "Longitude(deg)": -154.5061842647121,
        "Mean Anomaly(deg)": -39.820509361700026,
        "RAAN(deg)": 334.9652424048093,
        "Satellite Name": "Starlink Shell 1 1491",
        "Satellite Number": 1491,
        "Semi-Major Axis(m)": 6931778.249405717,
        "Time(s)": 670
    },
    {
        "Altitude(m)": 562678.7285458797,
        "Argument of Periapsis(deg)": 0.023703336606764106,
        "Eccentricity": 0.0,
        "Inclination(deg)": 53.0,
        "Latitude(deg)": -30.497860195457932,
        "Longitude(deg)": -154.03967967399944,
        "Mean Anomaly(deg)": -39.193678158143385,
        "RAAN(deg)": 334.9647236347319,
        "Satellite Name": "Starlink Shell 1 1491",
        "Satellite Number": 1491,
        "Semi-Major Axis(m)": 6931778.249405717,
        "Time(s)": 680
    },
    {
        "Altitude(m)": 562503.4211669326,
        "Argument of Periapsis(deg)": 0.024051915086275345,
        "Eccentricity": 0.0,
        "Inclination(deg)": 53.0,
        "Latitude(deg)": -30.04665789830974,
        "Longitude(deg)": -153.57781155148348,
        "Mean Anomaly(deg)": -38.56684695458669,
        "RAAN(deg)": 334.9642048646544,
        "Satellite Name": "Starlink Shell 1 1491",
        "Satellite Number": 1491,
        "Semi-Major Axis(m)": 6931778.249405717,
        "Time(s)": 690
    },
    {
        "Altitude(m)": 562328.2712330618,
        "Argument of Periapsis(deg)": 0.024400493565786583,
        "Eccentricity": 0.0,
        "Inclination(deg)": 53.0,
        "Latitude(deg)": -29.59350386488071,
        "Longitude(deg)": -153.1204745056948,
        "Mean Anomaly(deg)": -37.94001575102994,
        "RAAN(deg)": 334.96368609457693,
        "Satellite Name": "Starlink Shell 1 1491",
        "Satellite Number": 1491,
        "Semi-Major Axis(m)": 6931778.249405717,
        "Time(s)": 700
    },
    {
        "Altitude(m)": 562153.3442493436,
        "Argument of Periapsis(deg)": 0.024749072045297815,
        "Eccentricity": 0.0,
        "Inclination(deg)": 53.0,
        "Latitude(deg)": -29.13844916126196,
        "Longitude(deg)": -152.66756491851916,
        "Mean Anomaly(deg)": -37.31318454747319,
        "RAAN(deg)": 334.9631673244995,
        "Satellite Name": "Starlink Shell 1 1491",
        "Satellite Number": 1491,
        "Semi-Major Axis(m)": 6931778.249405717,
        "Time(s)": 710
    },
    {
        "Altitude(m)": 561978.7054749579,
        "Argument of Periapsis(deg)": 0.025097650524809053,
        "Eccentricity": 0.0,
        "Inclination(deg)": 53.0,
        "Latitude(deg)": -28.681543731948096,
        "Longitude(deg)": -152.21898045401585,
        "Mean Anomaly(deg)": -36.686353343916544,
        "RAAN(deg)": 334.962648554422,
        "Satellite Name": "Starlink Shell 1 1491",
        "Satellite Number": 1491,
        "Semi-Major Axis(m)": 6931778.249405717,
        "Time(s)": 720
    },
    {
        "Altitude(m)": 561804.4198939193,
        "Argument of Periapsis(deg)": 0.02544622900432029,
        "Eccentricity": 0.0,
        "Inclination(deg)": 53.0,
        "Latitude(deg)": -28.222836430584984,
        "Longitude(deg)": -151.77461956346815,
        "Mean Anomaly(deg)": -36.05952214035985,
        "RAAN(deg)": 334.9621297843445,
        "Satellite Name": "Starlink Shell 1 1491",
        "Satellite Number": 1491,
        "Semi-Major Axis(m)": 6931778.249405717,
        "Time(s)": 730
    },
    {
        "Altitude(m)": 561630.552185944,
        "Argument of Periapsis(deg)": 0.02579480748383153,
        "Eccentricity": 0.0,
        "Inclination(deg)": 53.0,
        "Latitude(deg)": -27.76237505031556,
        "Longitude(deg)": -151.334382499823,
        "Mean Anomaly(deg)": -35.432690936803105,
        "RAAN(deg)": 334.9616110142671,
        "Satellite Name": "Starlink Shell 1 1491",
        "Satellite Number": 1491,
        "Semi-Major Axis(m)": 6931778.249405717,
        "Time(s)": 740
    },
    {
        "Altitude(m)": 561457.1666974317,
        "Argument of Periapsis(deg)": 0.026143385963342765,
        "Eccentricity": 0.0,
        "Inclination(deg)": 53.0,
        "Latitude(deg)": -27.30020635370333,
        "Longitude(deg)": -150.89817081604454,
        "Mean Anomaly(deg)": -34.80585973324636,
        "RAAN(deg)": 334.96109224418956,
        "Satellite Name": "Starlink Shell 1 1491",
        "Satellite Number": 1491,
        "Semi-Major Axis(m)": 6931778.249405717,
        "Time(s)": 750
    }
]